{
  "type": "FeatureCollection",
  "features": [
    {
      "type": "Feature",
      "properties": {
        "norad_id": 2807,
        "name": "OPS 7218 (TRANSIT 16)",
        "group": "nnss",
        "lat": 7.089544565667166,
        "lon": 173.91062969163372,
        "alt_km": 1064.3969603802707,
        "timestamp": "2025-12-14T16:47:40.952158+00:00",
        "meta_object_name": "OPS 7218 (TRANSIT 16)",
        "meta_object_id": "1967-048A",
        "meta_epoch": "2025-12-14T00:12:10.796256",
        "meta_mean_motion": 13.50722423,
        "meta_eccentricity": 0.00220092,
        "meta_inclination": 89.6732,
        "meta_ra_of_asc_node": 353.9741,
        "meta_arg_of_pericenter": 110.6963,
        "meta_mean_anomaly": 302.2555,
        "meta_ephemeris_type": 0,
        "meta_classification_type": "U",
        "meta_norad_cat_id": 2807,
        "meta_element_set_no": 999,
        "meta_rev_at_epoch": 88293,
        "meta_bstar": 0.00018384202,
        "meta_mean_motion_dot": 1.29e-06,
        "meta_mean_motion_ddot": 0,
        "tle_line1": "1 02807U 67048A   25348.00845829  .00000129  00000+0  18384-3 0  9998",
        "tle_line2": "2 02807  89.6732 353.9741 0022009 110.6963 302.2555 13.50722423882936"
      },
      "geometry": {
        "type": "Point",
        "coordinates": [
          173.91062969163372,
          7.089544565667166
        ]
      }
    },
    {
      "type": "Feature",
      "properties": {
        "norad_id": 2965,
        "name": "OPS 4947 (TRANSIT 17)",
        "group": "nnss",
        "lat": -76.56450419569975,
        "lon": -152.5684049213255,
        "alt_km": 1036.56522970673,
        "timestamp": "2025-12-14T16:47:40.952180+00:00",
        "meta_object_name": "OPS 4947 (TRANSIT 17)",
        "meta_object_id": "1967-092A",
        "meta_epoch": "2025-12-13T20:52:15.682944",
        "meta_mean_motion": 13.53453723,
        "meta_eccentricity": 0.00462493,
        "meta_inclination": 89.2495,
        "meta_ra_of_asc_node": 24.3495,
        "meta_arg_of_pericenter": 231.111,
        "meta_mean_anomaly": 302.7414,
        "meta_ephemeris_type": 0,
        "meta_classification_type": "U",
        "meta_norad_cat_id": 2965,
        "meta_element_set_no": 999,
        "meta_rev_at_epoch": 87112,
        "meta_bstar": 0.00022729828,
        "meta_mean_motion_dot": 1.65e-06,
        "meta_mean_motion_ddot": 0,
        "tle_line1": "1 02965U 67092A   25347.86962596  .00000165  00000+0  22730-3 0  9996",
        "tle_line2": "2 02965  89.2495  24.3495 0046249 231.1110 302.7414 13.53453723871128"
      },
      "geometry": {
        "type": "Point",
        "coordinates": [
          -152.5684049213255,
          -76.56450419569975
        ]
      }
    },
    {
      "type": "Feature",
      "properties": {
        "norad_id": 3133,
        "name": "OPS 7034 (TRANSIT 18)",
        "group": "nnss",
        "lat": 31.46216175139087,
        "lon": -86.3728604165083,
        "alt_km": 1101.300622628566,
        "timestamp": "2025-12-14T16:47:40.952195+00:00",
        "meta_object_name": "OPS 7034 (TRANSIT 18)",
        "meta_object_id": "1968-012A",
        "meta_epoch": "2025-12-13T21:26:13.955712",
        "meta_mean_motion": 13.51565924,
        "meta_eccentricity": 0.00739635,
        "meta_inclination": 90.028,
        "meta_ra_of_asc_node": 273.642,
        "meta_arg_of_pericenter": 165.7892,
        "meta_mean_anomaly": 264.2963,
        "meta_ephemeris_type": 0,
        "meta_classification_type": "U",
        "meta_norad_cat_id": 3133,
        "meta_element_set_no": 999,
        "meta_rev_at_epoch": 56934,
        "meta_bstar": 0.00019153633,
        "meta_mean_motion_dot": 1.37e-06,
        "meta_mean_motion_ddot": 0,
        "tle_line1": "1 03133U 68012A   25347.89321708  .00000137  00000+0  19154-3 0  9999",
        "tle_line2": "2 03133  90.0280 273.6420 0073963 165.7892 264.2963 13.51565924569341"
      },
      "geometry": {
        "type": "Point",
        "coordinates": [
          -86.3728604165083,
          31.46216175139087
        ]
      }
    },
    {
      "type": "Feature",
      "properties": {
        "norad_id": 4507,
        "name": "NNSS 19 (TRANSIT 19)",
        "group": "nnss",
        "lat": 3.6620790763389084,
        "lon": -125.4651166365296,
        "alt_km": 1037.3581780102759,
        "timestamp": "2025-12-14T16:47:40.952207+00:00",
        "meta_object_name": "NNSS 19 (TRANSIT 19)",
        "meta_object_id": "1970-067A",
        "meta_epoch": "2025-12-13T17:40:28.521408",
        "meta_mean_motion": 13.51315365,
        "meta_eccentricity": 0.01704886,
        "meta_inclination": 90.0055,
        "meta_ra_of_asc_node": 234.5347,
        "meta_arg_of_pericenter": 290.4672,
        "meta_mean_anomaly": 67.8249,
        "meta_ephemeris_type": 0,
        "meta_classification_type": "U",
        "meta_norad_cat_id": 4507,
        "meta_element_set_no": 999,
        "meta_rev_at_epoch": 72235,
        "meta_bstar": 0.0001952017,
        "meta_mean_motion_dot": 1.46e-06,
        "meta_mean_motion_ddot": 0,
        "tle_line1": "1 04507U 70067A   25347.73644122  .00000146  00000+0  19520-3 0  9996",
        "tle_line2": "2 04507  90.0055 234.5347 0170488 290.4672  67.8249 13.51315365722351"
      },
      "geometry": {
        "type": "Point",
        "coordinates": [
          -125.4651166365296,
          3.6620790763389084
        ]
      }
    },
    {
      "type": "Feature",
      "properties": {
        "norad_id": 6909,
        "name": "NNSS 20 (TRANSIT 20)",
        "group": "nnss",
        "lat": -37.44921902916096,
        "lon": 75.13497390075146,
        "alt_km": 1094.6921590666243,
        "timestamp": "2025-12-14T16:47:40.952218+00:00",
        "meta_object_name": "NNSS 20 (TRANSIT 20)",
        "meta_object_id": "1973-081A",
        "meta_epoch": "2025-12-13T23:59:31.276320",
        "meta_mean_motion": 13.71434815,
        "meta_eccentricity": 0.01566118,
        "meta_inclination": 89.8562,
        "meta_ra_of_asc_node": 255.0353,
        "meta_arg_of_pericenter": 74.5885,
        "meta_mean_anomaly": 287.2518,
        "meta_ephemeris_type": 0,
        "meta_classification_type": "U",
        "meta_norad_cat_id": 6909,
        "meta_element_set_no": 999,
        "meta_rev_at_epoch": 80378,
        "meta_bstar": 0.00029251983,
        "meta_mean_motion_dot": 2.99e-06,
        "meta_mean_motion_ddot": 0,
        "tle_line1": "1 06909U 73081A   25347.99966755  .00000299  00000+0  29252-3 0  9992",
        "tle_line2": "2 06909  89.8562 255.0353 0156611  74.5885 287.2518 13.71434815803780"
      },
      "geometry": {
        "type": "Point",
        "coordinates": [
          75.13497390075146,
          -37.44921902916096
        ]
      }
    },
    {
      "type": "Feature",
      "properties": {
        "norad_id": 10457,
        "name": "TRANSAT",
        "group": "nnss",
        "lat": -9.88149246329965,
        "lon": 78.46634519235995,
        "alt_km": 1098.7840587965602,
        "timestamp": "2025-12-14T16:47:40.952230+00:00",
        "meta_object_name": "TRANSAT",
        "meta_object_id": "1977-106A",
        "meta_epoch": "2025-12-13T23:54:14.177952",
        "meta_mean_motion": 13.48943835,
        "meta_eccentricity": 0.00255144,
        "meta_inclination": 89.6481,
        "meta_ra_of_asc_node": 78.5526,
        "meta_arg_of_pericenter": 185.8366,
        "meta_mean_anomaly": 348.653,
        "meta_ephemeris_type": 0,
        "meta_classification_type": "U",
        "meta_norad_cat_id": 10457,
        "meta_element_set_no": 999,
        "meta_rev_at_epoch": 36760,
        "meta_bstar": 0.00013962146,
        "meta_mean_motion_dot": 9.8e-07,
        "meta_mean_motion_ddot": 0,
        "tle_line1": "1 10457U 77106A   25347.99599743  .00000098  00000+0  13962-3 0  9994",
        "tle_line2": "2 10457  89.6481  78.5526 0025514 185.8366 348.6530 13.48943835367601"
      },
      "geometry": {
        "type": "Point",
        "coordinates": [
          78.46634519235995,
          -9.88149246329965
        ]
      }
    },
    {
      "type": "Feature",
      "properties": {
        "norad_id": 12458,
        "name": "NOVA 1",
        "group": "nnss",
        "lat": 70.72574481696476,
        "lon": 91.77967450378887,
        "alt_km": 1154.8894380078837,
        "timestamp": "2025-12-14T16:47:40.952241+00:00",
        "meta_object_name": "NOVA 1",
        "meta_object_id": "1981-044A",
        "meta_epoch": "2025-12-13T21:05:02.798304",
        "meta_mean_motion": 13.23278629,
        "meta_eccentricity": 0.00159018,
        "meta_inclination": 89.8524,
        "meta_ra_of_asc_node": 91.369,
        "meta_arg_of_pericenter": 101.1865,
        "meta_mean_anomaly": 19.5332,
        "meta_ephemeris_type": 0,
        "meta_classification_type": "U",
        "meta_norad_cat_id": 12458,
        "meta_element_set_no": 999,
        "meta_rev_at_epoch": 15201,
        "meta_bstar": 0.0001734487,
        "meta_mean_motion_dot": 8.2e-07,
        "meta_mean_motion_ddot": 0,
        "tle_line1": "1 12458U 81044A   25347.87850461  .00000082  00000+0  17345-3 0  9999",
        "tle_line2": "2 12458  89.8524  91.3690 0015901 101.1865  19.5332 13.23278629152019"
      },
      "geometry": {
        "type": "Point",
        "coordinates": [
          91.77967450378887,
          70.72574481696476
        ]
      }
    }
  ]
}